IRIDIUM 159             
1 43578U 18061K   25332.55197243  .00000002  00000+0 -62876-5 0  9990
2 43578  86.3968 140.5942 0002022  87.8695 272.2732 14.34217674384620
IRIDIUM 180             
1 43922U 19002A   25332.34216374  .00000356  00000+0  11994-3 0  9997
2 43922  86.3964  77.5597 0002015  91.2495 268.8932 14.34221966360203
IRIDIUM 176             
1 43923U 19002B   25332.58628631  .00000667  00000+0  10182-3 0  9990
2 43923  86.6089  77.4303 0001984  99.7201 260.4240 14.72249848369739
IRIDIUM 173             
1 43925U 19002D   25332.53244319  .00000353  00000+0  11889-3 0  9991
2 43925  86.3965  77.4490 0001932  95.8739 264.2677 14.34221646360195
IRIDIUM 169             
1 43926U 19002E   25332.65339387  .00000298  00000+0  91084-4 0  9999
2 43926  86.4207 109.0483 0001011 116.1993 243.9310 14.38602519361394
IRIDIUM 172             
1 43927U 19002F   25332.59586810  .00000229  00000+0  74567-4 0  9999
2 43927  86.3962  77.4295 0002051  90.0542 270.0889 14.34220973360214
IRIDIUM 175             
1 43928U 19002G   25332.58154263  .00001006  00000+0  15561-3 0  9994
2 43928  86.1517  20.6384 0002958 104.0923 256.0623 14.72253820369727
